IRIDIUM 106             
1 41917U 17003A   24050.84983607  .00000289  00000+0  95976-4 0  9997
2 41917  86.3916  83.0688 0002372 101.2128 258.9335 14.34218901371615
IRIDIUM 103             
1 41918U 17003B   24050.62784115  .00000387  00000+0  13127-3 0  9993
2 41918  86.3916  83.0639 0001888  90.0753 270.0659 14.34221842371603
IRIDIUM 109             
1 41919U 17003C   24050.84349393  .00000184  00000+0  58772-4 0  9994
2 41919  86.3917  83.0191 0002189  86.3001 273.8445 14.34218312371609
IRIDIUM 102             
1 41920U 17003D   24050.60247611  .00000465  00000+0  15896-3 0  9991
2 41920  86.3915  83.0615 0002216  88.7446 271.4003 14.34219738371652
IRIDIUM 105             
1 41921U 17003E   24050.92200228  .00000265  00000+0  87406-4 0  9995
2 41921  86.3937  51.3247 0002144  88.9051 271.2391 14.34217093373551
IRIDIUM 104             
1 41922U 17003F   24050.82446082  .00000376  00000+0  12726-3 0  9990
2 41922  86.3914  82.9984 0002072  87.9148 272.2285 14.34219352371675
IRIDIUM 114             
1 41923U 17003G   24050.83080353  .00000448  00000+0  15280-3 0  9995
2 41923  86.3916  82.9820 0002321  98.0264 262.1195 14.34221780371650
IRIDIUM 108             
1 41924U 17003H   24050.92887224  .00000038  00000+0  66793-5 0  9990
2 41924  86.3932  51.2540 0002314  96.1194 264.0266 14.34217552373520
